{"type": "FeatureCollection", "features": [ {"type": "Feature", "properties": {"norad_id": 66747, "name": "W-SERIES 5", "group": "last-30-days", "lat": 56.9845082446438, "lon": 58.899856852348734, "alt_km": 508.670528319456, "timestamp": "2025-12-24T22:42:20.745520+00:00", "meta": {"OBJECT_NAME": "W-SERIES 5", "OBJECT_ID": "2025-276CK", "EPOCH": "2025-12-24T08:00:03.000384", "MEAN_MOTION": 15.1757398, "ECCENTRICITY": 0.00014703, "INCLINATION": 97.4408, "RA_OF_ASC_NODE": 69.9009, "ARG_OF_PERICENTER": 199.7323, "MEAN_ANOMALY": 112.8996, "EPHEMERIS_TYPE": 0, "CLASSIFICATION_TYPE": "U", "NORAD_CAT_ID": 66747, "ELEMENT_SET_NO": 999, "REV_AT_EPOCH": 130, "BSTAR": -0.0021954072, "MEAN_MOTION_DOT": -0.00043863, "MEAN_MOTION_DDOT": 0}, "tle": {"line1": "1 66747U 25276CK  25358.33336806 -.00043863  00000+0 -21954-2 0  9995", "line2": "2 66747  97.4408  69.9009 0001470 199.7323 112.8996 15.17573980  1309"}}, "geometry": {"type": "Point", "coordinates": [58.899856852348734, 56.9845082446438]}}, {"type": "Feature", "properties": {"norad_id": 66748, "name": "TRANSPORTER-15CL", "group": "last-30-days", "lat": 68.96662742362857, "lon": -89.60645919854609, "alt_km": 503.5723605694966, "timestamp": "2025-12-24T22:42:20.745530+00:00", "meta": {"OBJECT_NAME": "TRANSPORTER-15CL", "OBJECT_ID": "2025-276CL", "EPOCH": "2025-12-24T04:49:25.409856", "MEAN_MOTION": 15.18130934, "ECCENTRICITY": 0.00016772, "INCLINATION": 97.4414, "RA_OF_ASC_NODE": 69.7899, "ARG_OF_PERICENTER": 100.422, "MEAN_ANOMALY": 259.7203, "EPHEMERIS_TYPE": 0, "CLASSIFICATION_TYPE": "U", "NORAD_CAT_ID": 66748, "ELEMENT_SET_NO": 999, "REV_AT_EPOCH": 386, "BSTAR": 0.0011661203, "MEAN_MOTION_DOT": 0.00023791, "MEAN_MOTION_DDOT": 0}, "tle": {"line1": "1 66748U 25276CL  25358.20098854  .00023791  00000+0  11661-2 0  9990", "line2": "2 66748  97.4414  69.7899 0001677 100.4220 259.7203 15.18130934  3860"}}, "geometry": {"type": "Point", "coordinates": [-89.60645919854609, 68.96662742362857]}}, {"type": "Feature", "properties": {"norad_id": 66749, "name": "TRANSPORTER-15CM", "group": "last-30-days", "lat": 79.88616479004523, "lon": 23.404440278944854, "alt_km": 504.93879075170116, "timestamp": "2025-12-24T22:42:20.745540+00:00", "meta": {"OBJECT_NAME": "TRANSPORTER-15CM", "OBJECT_ID": "2025-276CM", "EPOCH": "2025-12-24T04:56:14.217504", "MEAN_MOTION": 15.17895008, "ECCENTRICITY": 0.00019686, "INCLINATION": 97.4399, "RA_OF_ASC_NODE": 69.7806, "ARG_OF_PERICENTER": 182.359, "MEAN_ANOMALY": 177.7635, "EPHEMERIS_TYPE": 0, "CLASSIFICATION_TYPE": "U", "NORAD_CAT_ID": 66749, "ELEMENT_SET_NO": 999, "REV_AT_EPOCH": 386, "BSTAR": 0.00057574608, "MEAN_MOTION_DOT": 0.00011614, "MEAN_MOTION_DDOT": 0}, "tle": {"line1": "1 66749U 25276CM  25358.20572011  .00011614  00000+0  57575-3 0  9999", "line2": "2 66749  97.4399  69.7806 0001968 182.3590 177.7635 15.17895008  3860"}}, "geometry": {"type": "Point", "coordinates": [23.404440278944854, 79.88616479004523]}}, {"type": "Feature", "properties": {"norad_id": 66750, "name": "TRANSPORTER-15CN", "group": "last-30-days", "lat": 76.50759684717683, "lon": -76.44974635959827, "alt_km": 503.3840628748794, "timestamp": "2025-12-24T22:42:20.745552+00:00", "meta": {"OBJECT_NAME": "TRANSPORTER-15CN", "OBJECT_ID": "2025-276CN", "EPOCH": "2025-12-24T06:26:29.652000", "MEAN_MOTION": 15.18051603, "ECCENTRICITY": 0.00022379, "INCLINATION": 97.4438, "RA_OF_ASC_NODE": 69.8649, "ARG_OF_PERICENTER": 148.4569, "MEAN_ANOMALY": 211.68, "EPHEMERIS_TYPE": 0, "CLASSIFICATION_TYPE": "U", "NORAD_CAT_ID": 66750, "ELEMENT_SET_NO": 999, "REV_AT_EPOCH": 387, "BSTAR": 0.00055816894, "MEAN_MOTION_DOT": 0.00011308, "MEAN_MOTION_DDOT": 0}, "tle": {"line1": "1 66750U 25276CN  25358.26839875  .00011308  00000+0  55817-3 0  9998", "line2": "2 66750  97.4438  69.8649 0002237 148.4569 211.6800 15.18051603  3870"}}, "geometry": {"type": "Point", "coordinates": [-76.44974635959827, 76.50759684717683]}}, {"type": "Feature", "properties": {"norad_id": 66751, "name": "ICEYE-X58", "group": "last-30-days", "lat": 78.11726285141725, "lon": 32.11734191495468, "alt_km": 505.8458295880264, "timestamp": "2025-12-24T22:42:20.745563+00:00", "meta": {"OBJECT_NAME": "ICEYE-X58", "OBJECT_ID": "2025-276CP", "EPOCH": "2025-12-24T04:56:49.119648", "MEAN_MOTION": 15.17821038, "ECCENTRICITY": 0.000245, "INCLINATION": 97.441, "RA_OF_ASC_NODE": 69.7883, "ARG_OF_PERICENTER": 199.7456, "MEAN_ANOMALY": 160.3684, "EPHEMERIS_TYPE": 0, "CLASSIFICATION_TYPE": "U", "NORAD_CAT_ID": 66751, "ELEMENT_SET_NO": 999, "REV_AT_EPOCH": 386, "BSTAR": 0.00049752668, "MEAN_MOTION_DOT": 0.00010004, "MEAN_MOTION_DDOT": 0}, "tle": {"line1": "1 66751U 25276CP  25358.20612407  .00010004  00000+0  49753-3 0  9997", "line2": "2 66751  97.4410  69.7883 0002450 199.7456 160.3684 15.17821038  3866"}}, "geometry": {"type": "Point", "coordinates": [32.11734191495468, 78.11726285141725]}}, {"type": "Feature", "properties": {"norad_id": 66752, "name": "ICEYE-X59", "group": "last-30-days", "lat": 61.68262374562477, "lon": 56.47161522758435, "alt_km": 508.28365828231654, "timestamp": "2025-12-24T22:42:20.745574+00:00", "meta": {"OBJECT_NAME": "ICEYE-X59", "OBJECT_ID": "2025-276CQ", "EPOCH": "2025-12-24T05:01:27.015744", "MEAN_MOTION": 15.17621478, "ECCENTRICITY": 0.00019168, "INCLINATION": 97.4404, "RA_OF_ASC_NODE": 69.7838, "ARG_OF_PERICENTER": 229.2772, "MEAN_ANOMALY": 130.8295, "EPHEMERIS_TYPE": 0, "CLASSIFICATION_TYPE": "U", "NORAD_CAT_ID": 66752, "ELEMENT_SET_NO": 999, "REV_AT_EPOCH": 386, "BSTAR": 0.00053127703, "MEAN_MOTION_DOT": 0.00010627, "MEAN_MOTION_DDOT": 0}, "tle": {"line1": "1 66752U 25276CQ  25358.20934046  .00010627  00000+0  53128-3 0  9996", "line2": "2 66752  97.4404  69.7838 0001916 229.2772 130.8295 15.17621478  3862"}}, "geometry": {"type": "Point", "coordinates": [56.47161522758435, 61.68262374562477]}}, {"type": "Feature", "properties": {"norad_id": 66753, "name": "ICEYE-X60", "group": "last-30-days", "lat": 36.19377389549084, "lon": 65.00522123131478, "alt_km": 513.9555722095347, "timestamp": "2025-12-24T22:42:20.745585+00:00", "meta": {"OBJECT_NAME": "ICEYE-X60", "OBJECT_ID": "2025-276CR", "EPOCH": "2025-12-22T16:43:05.853792", "MEAN_MOTION": 15.17180475, "ECCENTRICITY": 0.00011044, "INCLINATION": 97.441, "RA_OF_ASC_NODE": 68.2849, "ARG_OF_PERICENTER": 193.8242, "MEAN_ANOMALY": 166.2962, "EPHEMERIS_TYPE": 0, "CLASSIFICATION_TYPE": "U", "NORAD_CAT_ID": 66753, "ELEMENT_SET_NO": 999, "REV_AT_EPOCH": 363, "BSTAR": -0.0054396978, "MEAN_MOTION_DOT": -0.00106457, "MEAN_MOTION_DDOT": 0}, "tle": {"line1": "1 66753U 25276CR  25356.69659553 -.00106457  00000+0 -54397-2 0  9992", "line2": "2 66753  97.4410  68.2849 0001104 193.8242 166.2962 15.17180475  3639"}}, "geometry": {"type": "Point", "coordinates": [65.00522123131478, 36.19377389549084]}}, {"type": "Feature", "properties": {"norad_id": 66754, "name": "ICEYE-X61", "group": "last-30-days", "lat": 81.4436327174725, "lon": 10.2160771870853, "alt_km": 505.1109429238577, "timestamp": "2025-12-24T22:42:20.745594+00:00", "meta": {"OBJECT_NAME": "ICEYE-X61", "OBJECT_ID": "2025-276CS", "EPOCH": "2025-12-24T06:30:26.607456", "MEAN_MOTION": 15.17858911, "ECCENTRICITY": 0.00023745, "INCLINATION": 97.4405, "RA_OF_ASC_NODE": 69.8492, "ARG_OF_PERICENTER": 187.1235, "MEAN_ANOMALY": 172.9966, "EPHEMERIS_TYPE": 0, "CLASSIFICATION_TYPE": "U", "NORAD_CAT_ID": 66754, "ELEMENT_SET_NO": 999, "REV_AT_EPOCH": 387, "BSTAR": 0.0003173273, "MEAN_MOTION_DOT": 6.36e-05, "MEAN_MOTION_DDOT": 0}, "tle": {"line1": "1 66754U 25276CS  25358.27114129  .00006360  00000+0  31733-3 0  9994", "line2": "2 66754  97.4405  69.8492 0002374 187.1235 172.9966 15.17858911  3874"}}, "geometry": {"type": "Point", "coordinates": [10.2160771870853, 81.4436327174725]}}, {"type": "Feature", "properties": {"norad_id": 66755, "name": "ICEYE-X62", "group": "last-30-days", "lat": 60.508494104451806, "lon": 57.139559434678254, "alt_km": 508.59689386472655, "timestamp": "2025-12-24T22:42:20.745608+00:00", "meta": {"OBJECT_NAME": "ICEYE-X62", "OBJECT_ID": "2025-276CT", "EPOCH": "2025-12-22T22:57:46.373472", "MEAN_MOTION": 15.17604649, "ECCENTRICITY": 0.00026826, "INCLINATION": 97.4395, "RA_OF_ASC_NODE": 68.5434, "ARG_OF_PERICENTER": 290.3052, "MEAN_ANOMALY": 69.7893, "EPHEMERIS_TYPE": 0, "CLASSIFICATION_TYPE": "U", "NORAD_CAT_ID": 66755, "ELEMENT_SET_NO": 999, "REV_AT_EPOCH": 367, "BSTAR": 7.2637995e-05, "MEAN_MOTION_DOT": 1.393e-05, "MEAN_MOTION_DDOT": 0}, "tle": {"line1": "1 66755U 25276CT  25356.95678673  .00001393  00000+0  72638-4 0  9998", "line2": "2 66755  97.4395  68.5434 0002682 290.3052  69.7893 15.17604649  3678"}}, "geometry": {"type": "Point", "coordinates": [57.139559434678254, 60.508494104451806]}}, {"type": "Feature", "properties": {"norad_id": 66756, "name": "TRANSPORTER-15CU", "group": "last-30-days", "lat": 82.18448598614326, "lon": -37.270177541703355, "alt_km": 503.90283295947756, "timestamp": "2025-12-24T22:42:20.745618+00:00", "meta": {"OBJECT_NAME": "TRANSPORTER-15CU", "OBJECT_ID": "2025-276CU", "EPOCH": "2025-12-24T04:53:51.337824", "MEAN_MOTION": 15.17963946, "ECCENTRICITY": 0.00016485, "INCLINATION": 97.441, "RA_OF_ASC_NODE": 69.7896, "ARG_OF_PERICENTER": 153.8094, "MEAN_ANOMALY": 206.3224, "EPHEMERIS_TYPE": 0, "CLASSIFICATION_TYPE": "U", "NORAD_CAT_ID": 66756, "ELEMENT_SET_NO": 999, "REV_AT_EPOCH": 386, "BSTAR": 0.00052174089, "MEAN_MOTION_DOT": 0.00010538, "MEAN_MOTION_DDOT": 0}, "tle": {"line1": "1 66756U 25276CU  25358.20406641  .00010538  00000+0  52174-3 0  9996", "line2": "2 66756  97.4410  69.7896 0001648 153.8094 206.3224 15.17963946  3868"}}, "geometry": {"type": "Point", "coordinates": [-37.270177541703355, 82.18448598614326]}}]}